{"type": "FeatureCollection", "features": [ {"type": "Feature", "properties": {"norad_id": 33867, "name": "IRIDIUM 33 DEB", "group": "iridium-33-debris", "lat": -28.926359852715272, "lon": -11.650085909055104, "alt_km": 378.24392041491865, "timestamp": "2025-12-12T05:47:29.155913+00:00", "meta": {"OBJECT_NAME": "IRIDIUM 33 DEB", "OBJECT_ID": "1997-051AL", "EPOCH": "2025-12-11T23:46:57.533952", "MEAN_MOTION": 15.66357552, "ECCENTRICITY": 0.00133715, "INCLINATION": 86.3648, "RA_OF_ASC_NODE": 350.4931, "ARG_OF_PERICENTER": 89.3333, "MEAN_ANOMALY": 270.9467, "EPHEMERIS_TYPE": 0, "CLASSIFICATION_TYPE": "U", "NORAD_CAT_ID": 33867, "ELEMENT_SET_NO": 999, "REV_AT_EPOCH": 89499, "BSTAR": 0.0085221931, "MEAN_MOTION_DOT": 0.00974295, "MEAN_MOTION_DDOT": 0}, "tle": {"line1": "1 33867U 97051AL  25345.99094368  .00974295  00000+0  85222-2 0  9992", "line2": "2 33867  86.3648 350.4931 0013371  89.3333 270.9467 15.66357552894992"}}, "geometry": {"type": "Point", "coordinates": [-11.650085909055104, -28.926359852715272]}}, {"type": "Feature", "properties": {"norad_id": 33870, "name": "IRIDIUM 33 DEB", "group": "iridium-33-debris", "lat": -73.42135553472596, "lon": -109.22891421456029, "alt_km": 742.4964406061836, "timestamp": "2025-12-12T05:47:29.155925+00:00", "meta": {"OBJECT_NAME": "IRIDIUM 33 DEB", "OBJECT_ID": "1997-051AP", "EPOCH": "2025-12-11T05:37:02.620704", "MEAN_MOTION": 14.45838487, "ECCENTRICITY": 0.00213236, "INCLINATION": 86.3744, "RA_OF_ASC_NODE": 58.9059, "ARG_OF_PERICENTER": 182.8727, "MEAN_ANOMALY": 231.2371, "EPHEMERIS_TYPE": 0, "CLASSIFICATION_TYPE": "U", "NORAD_CAT_ID": 33870, "ELEMENT_SET_NO": 999, "REV_AT_EPOCH": 88115, "BSTAR": 0.0012319282, "MEAN_MOTION_DOT": 4.403e-05, "MEAN_MOTION_DDOT": 0}, "tle": {"line1": "1 33870U 97051AP  25345.23405811  .00004403  00000+0  12319-2 0  9994", "line2": "2 33870  86.3744  58.9059 0021323 182.8727 231.2371 14.45838487881151"}}, "geometry": {"type": "Point", "coordinates": [-109.22891421456029, -73.42135553472596]}}, {"type": "Feature", "properties": {"norad_id": 33881, "name": "IRIDIUM 33 DEB", "group": "iridium-33-debris", "lat": 77.53896370755379, "lon": -89.65951749633442, "alt_km": 684.9889643923098, "timestamp": "2025-12-12T05:47:29.155936+00:00", "meta": {"OBJECT_NAME": "IRIDIUM 33 DEB", "OBJECT_ID": "1997-051BA", "EPOCH": "2025-12-11T14:32:20.085792", "MEAN_MOTION": 14.56542071, "ECCENTRICITY": 0.00614976, "INCLINATION": 86.3861, "RA_OF_ASC_NODE": 107.2351, "ARG_OF_PERICENTER": 178.2333, "MEAN_ANOMALY": 194.09, "EPHEMERIS_TYPE": 0, "CLASSIFICATION_TYPE": "U", "NORAD_CAT_ID": 33881, "ELEMENT_SET_NO": 999, "REV_AT_EPOCH": 87484, "BSTAR": 0.0035261884, "MEAN_MOTION_DOT": 0.00016145, "MEAN_MOTION_DDOT": 0}, "tle": {"line1": "1 33881U 97051BA  25345.60578803  .00016145  00000+0  35262-2 0  9997", "line2": "2 33881  86.3861 107.2351 0061497 178.2333 194.0900 14.56542071874849"}}, "geometry": {"type": "Point", "coordinates": [-89.65951749633442, 77.53896370755379]}}, {"type": "Feature", "properties": {"norad_id": 33884, "name": "IRIDIUM 33 DEB", "group": "iridium-33-debris", "lat": 11.847237348460123, "lon": 10.806092628391214, "alt_km": 634.1206503765816, "timestamp": "2025-12-12T05:47:29.155947+00:00", "meta": {"OBJECT_NAME": "IRIDIUM 33 DEB", "OBJECT_ID": "1997-051BD", "EPOCH": "2025-12-11T10:27:31.158720", "MEAN_MOTION": 14.77392014, "ECCENTRICITY": 0.0009807, "INCLINATION": 86.3697, "RA_OF_ASC_NODE": 10.4065, "ARG_OF_PERICENTER": 328.8934, "MEAN_ANOMALY": 81.4709, "EPHEMERIS_TYPE": 0, "CLASSIFICATION_TYPE": "U", "NORAD_CAT_ID": 33884, "ELEMENT_SET_NO": 999, "REV_AT_EPOCH": 88828, "BSTAR": 0.002752918, "MEAN_MOTION_DOT": 0.0001965, "MEAN_MOTION_DDOT": 0}, "tle": {"line1": "1 33884U 97051BD  25345.43577730  .00019650  00000+0  27529-2 0  9990", "line2": "2 33884  86.3697  10.4065 0009807 328.8934  81.4709 14.77392014888285"}}, "geometry": {"type": "Point", "coordinates": [10.806092628391214, 11.847237348460123]}}, {"type": "Feature", "properties": {"norad_id": 33886, "name": "IRIDIUM 33 DEB", "group": "iridium-33-debris", "lat": 11.72503808323341, "lon": 68.19079284528762, "alt_km": 778.3248184650638, "timestamp": "2025-12-12T05:47:29.155958+00:00", "meta": {"OBJECT_NAME": "IRIDIUM 33 DEB", "OBJECT_ID": "1997-051BF", "EPOCH": "2025-12-11T15:19:17.904288", "MEAN_MOTION": 14.36050091, "ECCENTRICITY": 0.00122415, "INCLINATION": 86.383, "RA_OF_ASC_NODE": 67.6923, "ARG_OF_PERICENTER": 246.1584, "MEAN_ANOMALY": 250.6638, "EPHEMERIS_TYPE": 0, "CLASSIFICATION_TYPE": "U", "NORAD_CAT_ID": 33886, "ELEMENT_SET_NO": 999, "REV_AT_EPOCH": 88036, "BSTAR": 0.00031663905, "MEAN_MOTION_DOT": 9.4e-06, "MEAN_MOTION_DDOT": 0}, "tle": {"line1": "1 33886U 97051BF  25345.63840167  .00000940  00000+0  31664-3 0  9999", "line2": "2 33886  86.3830  67.6923 0012241 246.1584 250.6638 14.36050091880365"}}, "geometry": {"type": "Point", "coordinates": [68.19079284528762, 11.72503808323341]}}, {"type": "Feature", "properties": {"norad_id": 33887, "name": "IRIDIUM 33 DEB", "group": "iridium-33-debris", "lat": -53.95249043838537, "lon": -1.4872552672586197, "alt_km": 774.02866099929, "timestamp": "2025-12-12T05:47:29.155969+00:00", "meta": {"OBJECT_NAME": "IRIDIUM 33 DEB", "OBJECT_ID": "1997-051BG", "EPOCH": "2025-12-11T01:55:48.688896", "MEAN_MOTION": 14.37218579, "ECCENTRICITY": 0.0004312, "INCLINATION": 86.3045, "RA_OF_ASC_NODE": 4.1074, "ARG_OF_PERICENTER": 234.0797, "MEAN_ANOMALY": 189.2272, "EPHEMERIS_TYPE": 0, "CLASSIFICATION_TYPE": "U", "NORAD_CAT_ID": 33887, "ELEMENT_SET_NO": 999, "REV_AT_EPOCH": 88141, "BSTAR": 0.00021085031, "MEAN_MOTION_DOT": 6.47e-06, "MEAN_MOTION_DDOT": 0}, "tle": {"line1": "1 33887U 97051BG  25345.08042464  .00000647  00000+0  21085-3 0  9993", "line2": "2 33887  86.3045   4.1074 0004312 234.0797 189.2272 14.37218579881415"}}, "geometry": {"type": "Point", "coordinates": [-1.4872552672586197, -53.95249043838537]}}, {"type": "Feature", "properties": {"norad_id": 33953, "name": "IRIDIUM 33 DEB", "group": "iridium-33-debris", "lat": 50.70464414803824, "lon": -130.4359945998934, "alt_km": 691.9185790084875, "timestamp": "2025-12-12T05:47:29.155980+00:00", "meta": {"OBJECT_NAME": "IRIDIUM 33 DEB", "OBJECT_ID": "1997-051BN", "EPOCH": "2025-12-11T11:07:41.316960", "MEAN_MOTION": 14.55307463, "ECCENTRICITY": 0.00184119, "INCLINATION": 86.3843, "RA_OF_ASC_NODE": 54.3329, "ARG_OF_PERICENTER": 106.7147, "MEAN_ANOMALY": 270.7615, "EPHEMERIS_TYPE": 0, "CLASSIFICATION_TYPE": "U", "NORAD_CAT_ID": 33953, "ELEMENT_SET_NO": 999, "REV_AT_EPOCH": 88285, "BSTAR": 0.0022887036, "MEAN_MOTION_DOT": 9.967e-05, "MEAN_MOTION_DDOT": 0}, "tle": {"line1": "1 33953U 97051BN  25345.46367265  .00009967  00000+0  22887-2 0  9992", "line2": "2 33953  86.3843  54.3329 0018411 106.7147 270.7615 14.55307463882851"}}, "geometry": {"type": "Point", "coordinates": [-130.4359945998934, 50.70464414803824]}}, {"type": "Feature", "properties": {"norad_id": 33960, "name": "IRIDIUM 33 DEB", "group": "iridium-33-debris", "lat": -59.582941406104666, "lon": 116.15850903598056, "alt_km": 625.5685427014851, "timestamp": "2025-12-12T05:47:29.155992+00:00", "meta": {"OBJECT_NAME": "IRIDIUM 33 DEB", "OBJECT_ID": "1997-051BV", "EPOCH": "2025-12-11T20:52:13.312128", "MEAN_MOTION": 14.85121731, "ECCENTRICITY": 0.00074729, "INCLINATION": 86.253, "RA_OF_ASC_NODE": 289.9247, "ARG_OF_PERICENTER": 63.6989, "MEAN_ANOMALY": 349.9861, "EPHEMERIS_TYPE": 0, "CLASSIFICATION_TYPE": "U", "NORAD_CAT_ID": 33960, "ELEMENT_SET_NO": 999, "REV_AT_EPOCH": 88854, "BSTAR": 0.004647626, "MEAN_MOTION_DOT": 0.00039972, "MEAN_MOTION_DDOT": 0}, "tle": {"line1": "1 33960U 97051BV  25345.86959852  .00039972  00000+0  46476-2 0  9992", "line2": "2 33960  86.2530 289.9247 0007472  63.6989 349.9861 14.85121731888545"}}, "geometry": {"type": "Point", "coordinates": [116.15850903598056, -59.582941406104666]}}, {"type": "Feature", "properties": {"norad_id": 33966, "name": "IRIDIUM 33 DEB", "group": "iridium-33-debris", "lat": -84.1396022014772, "lon": -95.83080659266463, "alt_km": 733.1356713891328, "timestamp": "2025-12-12T05:47:29.156002+00:00", "meta": {"OBJECT_NAME": "IRIDIUM 33 DEB", "OBJECT_ID": "1997-051CB", "EPOCH": "2025-12-11T22:30:38.278656", "MEAN_MOTION": 14.49589351, "ECCENTRICITY": 0.00073139, "INCLINATION": 86.3923, "RA_OF_ASC_NODE": 46.3712, "ARG_OF_PERICENTER": 190.8773, "MEAN_ANOMALY": 292.2997, "EPHEMERIS_TYPE": 0, "CLASSIFICATION_TYPE": "U", "NORAD_CAT_ID": 33966, "ELEMENT_SET_NO": 999, "REV_AT_EPOCH": 88430, "BSTAR": 0.00087152369, "MEAN_MOTION_DOT": 3.365e-05, "MEAN_MOTION_DDOT": 0}, "tle": {"line1": "1 33966U 97051CB  25345.93794304  .00003365  00000+0  87152-3 0  9999", "line2": "2 33966  86.3923  46.3712 0007313 190.8773 292.2997 14.49589351884304"}}, "geometry": {"type": "Point", "coordinates": [-95.83080659266463, -84.1396022014772]}}, {"type": "Feature", "properties": {"norad_id": 34071, "name": "IRIDIUM 33 DEB", "group": "iridium-33-debris", "lat": -28.224050250101577, "lon": 16.079322530708247, "alt_km": 738.4886873672331, "timestamp": "2025-12-12T05:47:29.156013+00:00", "meta": {"OBJECT_NAME": "IRIDIUM 33 DEB", "OBJECT_ID": "1997-051CE", "EPOCH": "2025-12-12T00:57:04.495968", "MEAN_MOTION": 14.49460167, "ECCENTRICITY": 0.00099251, "INCLINATION": 86.346, "RA_OF_ASC_NODE": 18.1325, "ARG_OF_PERICENTER": 109.5806, "MEAN_ANOMALY": 250.647, "EPHEMERIS_TYPE": 0, "CLASSIFICATION_TYPE": "U", "NORAD_CAT_ID": 34071, "ELEMENT_SET_NO": 999, "REV_AT_EPOCH": 88324, "BSTAR": 0.000958371, "MEAN_MOTION_DOT": 3.69e-05, "MEAN_MOTION_DDOT": 0}, "tle": {"line1": "1 34071U 97051CE  25346.03963537  .00003690  00000+0  95837-3 0  9995", "line2": "2 34071  86.3460  18.1325 0009925 109.5806 250.6470 14.49460167883249"}}, "geometry": {"type": "Point", "coordinates": [16.079322530708247, -28.224050250101577]}}]}